AETHER-2                
1 58299U 23174AV  26068.71793741  .00008341  00000+0  26166-3 0  9990
2 58299  97.3931 151.9008 0008630 139.5247 220.6639 15.33264165129982
STARLINK-34537          
1 64778U 25147Z   26068.71652418  .00028615  00000+0  97442-3 0  9997
2 64778  53.1565 219.7468 0000835  90.4465 269.6632 15.30203721 39101
